ONEWEB-0190             
1 48796U 21045AF  26095.21941288 -.00000026  00000+0 -10370-3 0  9996
2 48796  87.8924 273.7599 0002471  94.3134 265.8279 13.15547004234776
ONEWEB-0236             
1 48797U 21045AG  26094.93261653  .00000049  00000+0  96072-4 0  9993
2 48797  87.8926 273.8284 0001620  93.2454 266.8862 13.15550013234626
ONEWEB-0248             
1 48798U 21045AH  26095.24953982  .00000212  00000+0  52847-3 0  9995
2 48798  87.8938 273.7413 0002128  85.3685 274.7688 13.15548189234822
ONEWEB-0225             
1 48799U 21045AJ  26094.96747889 -.00000091  00000+0 -27655-3 0  9997
2 48799  87.8930 273.8111 0002368  93.8356 266.3046 13.15549937234799
ONEWEB-0215             
1 48800U 21045AK  26094.93737679  .00000209  00000+0  52192-3 0  9996
2 48800  87.8939 273.7928 0002465  90.3339 269.8073 13.15550025234661
ONEWEB-0216             
1 48801U 21045AL  26095.25111492  .00000139  00000+0  33450-3 0  9990
2 48801  87.8933 273.7471 0001728  97.9337 262.1989 13.15547921234710
ONEWEB-0239             
1 48802U 21045AM  26095.25586684  .00000131  00000+0  31310-3 0  9995
2 48802  87.8925 273.7595 0002499  83.3809 276.7606 13.15547611234755
ONEWEB-0249             
1 48967U 21060A   26095.17180795  .00000135  00000+0  32073-3 0  9999
2 48967  87.9046 243.2876 0001778  96.4054 263.7279 13.16593520230009
ONEWEB-0250             
1 48968U 21060B   26095.10367457  .00000121  00000+0  24492-3 0  9996
2 48968  87.9044 241.2945 0001753  66.4340 293.6981 13.25829350230534
ONEWEB-0252             
1 48970U 21060D   26095.12668503  .00000084  00000+0  18587-3 0  9993
2 48970  87.9044 243.2885 0001847 107.5283 252.6050 13.16595787230041
ONEWEB-0253             
1 48971U 21060E   26095.11558983  .00000054  00000+0  10705-3 0  9994
2 48971  87.9046 243.2970 0001831  97.6432 262.4907 13.16592858229973
ONEWEB-0254             
1 48972U 21060F   26095.12510605  .00000026  00000+0  33495-4 0  9996
2 48972  87.9047 243.2904 0002017  93.2547 266.8815 13.16595760229979
ONEWEB-0255             
1 48973U 21060G   26095.16310998  .00000164  00000+0  39605-3 0  9995
2 48973  87.9045 243.2914 0001920  96.2996 263.8354 13.16593083230054
ONEWEB-0256             
1 48974U 21060H   26095.11321214  .00000088  00000+0  19611-3 0  9994
2 48974  87.9045 243.3088 0001684 104.2365 255.8953 13.16597192230012
ONEWEB-0257             
1 48975U 21060J   26095.14568436  .00000076  00000+0  16564-3 0  9998
2 48975  87.9048 243.2859 0001895 100.4705 259.6640 13.16595207229974
ONEWEB-0258             
1 48976U 21060K   26095.14725782 -.00000009  00000+0 -56163-4 0  9996
2 48976  87.9047 243.2967 0001770  97.0666 263.0667 13.16593210229984
