[{"OBJECT_NAME":"ONEWEB-0190","OBJECT_ID":"2021-045AF","EPOCH":"2026-04-05T05:15:57.272832","MEAN_MOTION":13.15547004,"ECCENTRICITY":0.0002471,"INCLINATION":87.8924,"RA_OF_ASC_NODE":273.7599,"ARG_OF_PERICENTER":94.3134,"MEAN_ANOMALY":265.8279,"EPHEMERIS_TYPE":0,"CLASSIFICATION_TYPE":"U","NORAD_CAT_ID":48796,"ELEMENT_SET_NO":999,"REV_AT_EPOCH":23477,"BSTAR":-0.0001037,"MEAN_MOTION_DOT":-2.6e-07,"MEAN_MOTION_DDOT":0.0},{"OBJECT_NAME":"ONEWEB-0236","OBJECT_ID":"2021-045AG","EPOCH":"2026-04-04T22:22:58.068192","MEAN_MOTION":13.15550013,"ECCENTRICITY":0.000162,"INCLINATION":87.8926,"RA_OF_ASC_NODE":273.8284,"ARG_OF_PERICENTER":93.2454,"MEAN_ANOMALY":266.8862,"EPHEMERIS_TYPE":0,"CLASSIFICATION_TYPE":"U","NORAD_CAT_ID":48797,"ELEMENT_SET_NO":999,"REV_AT_EPOCH":23462,"BSTAR":9.607200000000001e-05,"MEAN_MOTION_DOT":4.9e-07,"MEAN_MOTION_DDOT":0.0},{"OBJECT_NAME":"ONEWEB-0248","OBJECT_ID":"2021-045AH","EPOCH":"2026-04-05T05:59:20.240448","MEAN_MOTION":13.15548189,"ECCENTRICITY":0.0002128,"INCLINATION":87.8938,"RA_OF_ASC_NODE":273.7413,"ARG_OF_PERICENTER":85.3685,"MEAN_ANOMALY":274.7688,"EPHEMERIS_TYPE":0,"CLASSIFICATION_TYPE":"U","NORAD_CAT_ID":48798,"ELEMENT_SET_NO":999,"REV_AT_EPOCH":23482,"BSTAR":0.00052847,"MEAN_MOTION_DOT":2.12e-06,"MEAN_MOTION_DDOT":0.0},{"OBJECT_NAME":"ONEWEB-0225","OBJECT_ID":"2021-045AJ","EPOCH":"2026-04-04T23:13:10.176096","MEAN_MOTION":13.15549937,"ECCENTRICITY":0.0002368,"INCLINATION":87.893,"RA_OF_ASC_NODE":273.8111,"ARG_OF_PERICENTER":93.8356,"MEAN_ANOMALY":266.3046,"EPHEMERIS_TYPE":0,"CLASSIFICATION_TYPE":"U","NORAD_CAT_ID":48799,"ELEMENT_SET_NO":999,"REV_AT_EPOCH":23479,"BSTAR":-0.00027655000000000003,"MEAN_MOTION_DOT":-9.1e-07,"MEAN_MOTION_DDOT":0.0},{"OBJECT_NAME":"ONEWEB-0215","OBJECT_ID":"2021-045AK","EPOCH":"2026-04-04T22:29:49.354656","MEAN_MOTION":13.15550025,"ECCENTRICITY":0.0002465,"INCLINATION":87.8939,"RA_OF_ASC_NODE":273.7928,"ARG_OF_PERICENTER":90.3339,"MEAN_ANOMALY":269.8073,"EPHEMERIS_TYPE":0,"CLASSIFICATION_TYPE":"U","NORAD_CAT_ID":48800,"ELEMENT_SET_NO":999,"REV_AT_EPOCH":23466,"BSTAR":0.00052192,"MEAN_MOTION_DOT":2.09e-06,"MEAN_MOTION_DDOT":0.0},{"OBJECT_NAME":"ONEWEB-0216","OBJECT_ID":"2021-045AL","EPOCH":"2026-04-05T06:01:36.329088","MEAN_MOTION":13.15547921,"ECCENTRICITY":0.0001728,"INCLINATION":87.8933,"RA_OF_ASC_NODE":273.7471,"ARG_OF_PERICENTER":97.9337,"MEAN_ANOMALY":262.1989,"EPHEMERIS_TYPE":0,"CLASSIFICATION_TYPE":"U","NORAD_CAT_ID":48801,"ELEMENT_SET_NO":999,"REV_AT_EPOCH":23471,"BSTAR":0.00033450000000000005,"MEAN_MOTION_DOT":1.39e-06,"MEAN_MOTION_DDOT":0.0},{"OBJECT_NAME":"ONEWEB-0239","OBJECT_ID":"2021-045AM","EPOCH":"2026-04-05T06:08:26.894976","MEAN_MOTION":13.15547611,"ECCENTRICITY":0.0002499,"INCLINATION":87.8925,"RA_OF_ASC_NODE":273.7595,"ARG_OF_PERICENTER":83.3809,"MEAN_ANOMALY":276.7606,"EPHEMERIS_TYPE":0,"CLASSIFICATION_TYPE":"U","NORAD_CAT_ID":48802,"ELEMENT_SET_NO":999,"REV_AT_EPOCH":23475,"BSTAR":0.0003131,"MEAN_MOTION_DOT":1.31e-06,"MEAN_MOTION_DDOT":0.0},{"OBJECT_NAME":"ONEWEB-0249","OBJECT_ID":"2021-060A","EPOCH":"2026-04-05T04:07:24.206880","MEAN_MOTION":13.1659352,"ECCENTRICITY":0.0001778,"INCLINATION":87.9046,"RA_OF_ASC_NODE":243.2876,"ARG_OF_PERICENTER":96.4054,"MEAN_ANOMALY":263.7279,"EPHEMERIS_TYPE":0,"CLASSIFICATION_TYPE":"U","NORAD_CAT_ID":48967,"ELEMENT_SET_NO":999,"REV_AT_EPOCH":23000,"BSTAR":0.00032073000000000003,"MEAN_MOTION_DOT":1.35e-06,"MEAN_MOTION_DDOT":0.0},{"OBJECT_NAME":"ONEWEB-0250","OBJECT_ID":"2021-060B","EPOCH":"2026-04-05T02:29:17.482848","MEAN_MOTION":13.2582935,"ECCENTRICITY":0.0001753,"INCLINATION":87.9044,"RA_OF_ASC_NODE":241.2945,"ARG_OF_PERICENTER":66.434,"MEAN_ANOMALY":293.6981,"EPHEMERIS_TYPE":0,"CLASSIFICATION_TYPE":"U","NORAD_CAT_ID":48968,"ELEMENT_SET_NO":999,"REV_AT_EPOCH":23053,"BSTAR":0.00024492,"MEAN_MOTION_DOT":1.21e-06,"MEAN_MOTION_DDOT":0.0},{"OBJECT_NAME":"ONEWEB-0252","OBJECT_ID":"2021-060D","EPOCH":"2026-04-05T03:02:25.586592","MEAN_MOTION":13.16595787,"ECCENTRICITY":0.0001847,"INCLINATION":87.9044,"RA_OF_ASC_NODE":243.2885,"ARG_OF_PERICENTER":107.5283,"MEAN_ANOMALY":252.605,"EPHEMERIS_TYPE":0,"CLASSIFICATION_TYPE":"U","NORAD_CAT_ID":48970,"ELEMENT_SET_NO":999,"REV_AT_EPOCH":23004,"BSTAR":0.00018587,"MEAN_MOTION_DOT":8.4e-07,"MEAN_MOTION_DDOT":0.0},{"OBJECT_NAME":"ONEWEB-0253","OBJECT_ID":"2021-060E","EPOCH":"2026-04-05T02:46:26.961312","MEAN_MOTION":13.16592858,"ECCENTRICITY":0.0001831,"INCLINATION":87.9046,"RA_OF_ASC_NODE":243.297,"ARG_OF_PERICENTER":97.6432,"MEAN_ANOMALY":262.4907,"EPHEMERIS_TYPE":0,"CLASSIFICATION_TYPE":"U","NORAD_CAT_ID":48971,"ELEMENT_SET_NO":999,"REV_AT_EPOCH":22997,"BSTAR":0.00010705000000000001,"MEAN_MOTION_DOT":5.4e-07,"MEAN_MOTION_DDOT":0.0},{"OBJECT_NAME":"ONEWEB-0254","OBJECT_ID":"2021-060F","EPOCH":"2026-04-05T03:00:09.162720","MEAN_MOTION":13.1659576,"ECCENTRICITY":0.0002017,"INCLINATION":87.9047,"RA_OF_ASC_NODE":243.2904,"ARG_OF_PERICENTER":93.2547,"MEAN_ANOMALY":266.8815,"EPHEMERIS_TYPE":0,"CLASSIFICATION_TYPE":"U","NORAD_CAT_ID":48972,"ELEMENT_SET_NO":999,"REV_AT_EPOCH":22997,"BSTAR":3.3495000000000004e-05,"MEAN_MOTION_DOT":2.6e-07,"MEAN_MOTION_DDOT":0.0},{"OBJECT_NAME":"ONEWEB-0255","OBJECT_ID":"2021-060G","EPOCH":"2026-04-05T03:54:52.702272","MEAN_MOTION":13.16593083,"ECCENTRICITY":0.000192,"INCLINATION":87.9045,"RA_OF_ASC_NODE":243.2914,"ARG_OF_PERICENTER":96.2996,"MEAN_ANOMALY":263.8354,"EPHEMERIS_TYPE":0,"CLASSIFICATION_TYPE":"U","NORAD_CAT_ID":48973,"ELEMENT_SET_NO":999,"REV_AT_EPOCH":23005,"BSTAR":0.00039605,"MEAN_MOTION_DOT":1.64e-06,"MEAN_MOTION_DDOT":0.0},{"OBJECT_NAME":"ONEWEB-0256","OBJECT_ID":"2021-060H","EPOCH":"2026-04-05T02:43:01.528896","MEAN_MOTION":13.16597192,"ECCENTRICITY":0.0001684,"INCLINATION":87.9045,"RA_OF_ASC_NODE":243.3088,"ARG_OF_PERICENTER":104.2365,"MEAN_ANOMALY":255.8953,"EPHEMERIS_TYPE":0,"CLASSIFICATION_TYPE":"U","NORAD_CAT_ID":48974,"ELEMENT_SET_NO":999,"REV_AT_EPOCH":23001,"BSTAR":0.00019611000000000002,"MEAN_MOTION_DOT":8.8e-07,"MEAN_MOTION_DDOT":0.0},{"OBJECT_NAME":"ONEWEB-0257","OBJECT_ID":"2021-060J","EPOCH":"2026-04-05T03:29:47.128704","MEAN_MOTION":13.16595207,"ECCENTRICITY":0.0001895,"INCLINATION":87.9048,"RA_OF_ASC_NODE":243.2859,"ARG_OF_PERICENTER":100.4705,"MEAN_ANOMALY":259.664,"EPHEMERIS_TYPE":0,"CLASSIFICATION_TYPE":"U","NORAD_CAT_ID":48975,"ELEMENT_SET_NO":999,"REV_AT_EPOCH":22997,"BSTAR":0.00016564000000000002,"MEAN_MOTION_DOT":7.6e-07,"MEAN_MOTION_DDOT":0.0},{"OBJECT_NAME":"ONEWEB-0258","OBJECT_ID":"2021-060K","EPOCH":"2026-04-05T03:32:03.075648","MEAN_MOTION":13.1659321,"ECCENTRICITY":0.000177,"INCLINATION":87.9047,"RA_OF_ASC_NODE":243.2967,"ARG_OF_PERICENTER":97.0666,"MEAN_ANOMALY":263.0667,"EPHEMERIS_TYPE":0,"CLASSIFICATION_TYPE":"U","NORAD_CAT_ID":48976,"ELEMENT_SET_NO":999,"REV_AT_EPOCH":22998,"BSTAR":-5.6163e-05,"MEAN_MOTION_DOT":-9e-08,"MEAN_MOTION_DDOT":0.0}]